{
  "norad_id": 60920,
  "name": "STARLINK-32345",
  "history": [
    {
      "epoch": "2026-03-28T17:08:39.689664Z",
      "apogee_km": 475.960646181602,
      "perigee_km": 474.48388432712454,
      "latitude_deg": 1.0951252920193228e-05,
      "longitude_deg": 112.46440493098677,
      "height_km": 476.06804330035504,
      "semi_major_axis_km": 6853.359265254363,
      "eccentricity": 0.00010774,
      "inclination_deg": 53.1609,
      "raan_deg": 195.7606,
      "arg_perigee_deg": 85.9105,
      "mean_anomaly_deg": 274.2019,
      "mean_motion_rev_day": 15.3019759
    }
  ]
}