{"fetched_at":"2026-03-30T06:02:59Z","count":15439,"tles":[{"name":"STARLINK-32345","line1":"1 60920U 24154T   26087.71434826  .00000136  00000+0  16718-4 0  9997","line2":"2 60920  53.1609 195.7606 0001077  85.9105 274.2019 15.30197590 89259","category":"Starlink"}]}